OBJECT_NAME,OBJECT_ID,EPOCH,MEAN_MOTION,ECCENTRICITY,INCLINATION,RA_OF_ASC_NODE,ARG_OF_PERICENTER,MEAN_ANOMALY,EPHEMERIS_TYPE,CLASSIFICATION_TYPE,NORAD_CAT_ID,ELEMENT_SET_NO,REV_AT_EPOCH,BSTAR,MEAN_MOTION_DOT,MEAN_MOTION_DDOT
DUCHIFAT-1,2014-033M,2026-07-09T02:48:14.645952,15.69759950,.0001719,98.0435,252.4424,258.2829,101.8238,0,U,40021,999,65918,.8115863E-3,.97268E-3,0
NANOSATC-BR1,2014-033Q,2026-07-08T21:25:51.070944,15.32184216,.00053051,98.0720,224.2139,111.5840,248.5966,0,U,40024,999,65730,.39647021E-3,.12243E-3,0
QB50P1,2014-033R,2026-07-08T23:06:16.072128,15.18602701,.00099759,98.0972,202.6398,143.0121,217.1801,0,U,40025,999,65633,.25681755E-3,.5242E-4,0
DTUSAT-2,2014-033W,2026-07-09T05:30:38.774880,15.15302534,.00088633,98.0874,189.3609,149.7588,210.4156,0,U,40030,999,65602,.25806378E-3,.4789E-4,0
QB50P2,2014-033Y,2026-07-08T22:59:01.836096,15.15452069,.00093297,98.0762,188.1976,101.2367,258.9913,0,U,40032,999,65596,.24733275E-3,.4607E-4,0
PERSEUS-M1,2014-033AF,2026-07-09T07:32:28.183776,14.95700886,.00105884,97.9647,134.8109,217.9052,142.1424,0,U,40039,999,65394,.12071657E-3,.1284E-4,0
POLYITAN-1,2014-033AJ,2026-07-09T00:57:44.269344,15.34063134,.00083174,98.0943,218.3797,82.3047,277.9138,0,U,40042,999,65694,.41372107E-3,.13569E-3,0
TIGRISAT,2014-033AK,2026-07-09T03:30:58.796640,14.85238395,.00491754,97.7856,339.6587,4.2911,355.8715,0,U,40043,999,64888,.14432965E-3,.1209E-4,0
CANX-4,2014-034C,2026-07-09T02:31:57.677952,14.81304286,.00116359,98.3094,66.2205,304.5619,55.4494,0,U,40055,999,64777,.85748069E-4,.612E-5,0
CANX-5,2014-034D,2026-07-09T02:29:20.201856,14.81321616,.0011636,98.3096,66.2635,304.7707,55.2409,0,U,40056,999,63858,.85658027E-4,.612E-5,0
GONETS-M 10,2014-036C,2026-07-09T06:52:43.421088,12.42946613,.00229974,82.5119,293.9490,94.6498,265.7209,0,U,40063,999,54499,.67933115E-3,.104E-5,0
METEOR-M 2,2014-037A,2026-07-09T05:57:09.019584,14.21469366,.0005523,98.5129,165.2063,345.7482,14.3539,0,U,40069,999,62245,.18054973E-3,.353E-5,0
DX1,2014-037C,2026-07-09T07:41:57.578784,14.90054337,.00065745,98.3876,153.3676,188.6572,171.4531,0,U,40071,999,64940,.19218539E-3,.1793E-4,0
UKUBE-1,2014-037F,2026-07-08T23:34:37.945632,15.13887025,.00032733,98.4245,195.5495,99.1613,260.9986,0,U,40074,999,65185,.26984496E-3,.4805E-4,0
GAOFEN-2,2014-049A,2026-07-09T08:07:15.320064,14.80924302,.00078683,98.0096,254.5237,151.6249,208.5393,0,U,40118,999,64251,.10014282E-3,.721E-5,0
BRITE-PL2 (HEWELIUSZ),2014-049B,2026-07-09T06:21:32.978592,14.94675108,.00147773,97.9114,302.4379,41.3663,318.8673,0,U,40119,999,64474,.15885348E-3,.1666E-4,0
CBERS 4,2014-079A,2026-07-09T08:12:10.423584,14.35515531,.00010387,98.3519,246.4774,50.0564,310.0713,0,U,40336,999,60713,.73906695E-4,.17E-5,0
SMAP,2015-003A,2026-07-09T07:14:58.141248,14.63386010,.00015494,98.1280,197.0836,96.8898,263.2480,0,U,40376,999,61085,.64423242E-4,.286E-5,0
GONETS-M 11,2015-020A,2026-07-09T07:20:54.276864,12.42878110,.00155934,82.4868,17.2061,316.9753,43.0107,0,U,40552,999,51148,.10159135E-4,.11E-6,0
GONETS-M 12,2015-020B,2026-07-09T06:42:23.272128,12.42891758,.00143981,82.4902,18.3524,301.1512,58.8155,0,U,40553,999,51147,-.14003564E-4,.8E-7,0
GONETS-M 13,2015-020C,2026-07-09T08:00:38.934144,12.42871999,.00128581,82.4864,16.9272,285.1360,74.8297,0,U,40554,999,51145,.10234096E-2,.151E-5,0
DMC3-FM1,2015-032A,2026-07-09T07:05:17.517696,14.85761335,.00054637,97.6438,54.6000,357.3436,2.7750,0,U,40715,999,59319,-.3474864E-5,-.81E-6,0
DMC3-FM2,2015-032B,2026-07-09T05:59:56.328864,14.85769678,.00060964,97.6491,56.1453,2.0943,358.0297,0,U,40716,999,59318,.70229516E-4,.559E-5,0
DMC3-FM3,2015-032C,2026-07-09T06:33:45.266976,14.85761143,.00054353,97.6544,57.9351,4.6138,355.5127,0,U,40717,999,59319,.95522633E-4,.778E-5,0
CARBONITE 1 (CBNT-1),2015-032D,2026-07-09T07:18:03.134880,14.83654132,.0013432,97.6523,7.4462,217.6133,142.4143,0,U,40718,999,59262,.86515933E-4,.664E-5,0
LILACSAT-2,2015-049K,2026-07-09T06:15:51.115392,15.52208169,.00079535,97.4632,227.9487,159.2381,200.9196,0,U,40908,999,59917,.24850787E-3,.14987E-3,0
